{
"type": "FeatureCollection",
"name": "Restaurants",
"crs": { "type": "name", "properties": { "name": "urn:ogc:def:crs:EPSG::2263" } },
"features": [
{ "type": "Feature", "properties": { "id": "node/2454126844", "@id": "node/2454126844", "addr:city": "New York", "addr:housenumber": "108", "addr:postcode": "10009", "addr:state": "NY", "addr:street": "Avenue B", "alt_name": null, "amenity": "Bar", "branch": null, "brand": null, "brand:wikidata": null, "check_date": null, "check_date:opening_hours": "2021-03-09", "cocktails": null, "cuisine": null, "delivery": null, "diet:vegan": null, "diet:vegetarian": null, "drink:beer": null, "drink:coffee": null, "drink:liquor": null, "drink:wine": null, "facebook": null, "happy_hours": null, "indoor_seating": null, "instagram": null, "internet_access": null, "internet_access:fee": null, "name": "Vazacs Horseshoe Bar", "note": null, "official_name": null, "opening_hours": "Mo-Su 12:00-04:00", "opening_hours:signed": null, "outdoor_seating": null, "payment:mastercard": null, "payment:visa": null, "phone": null, "reservation": null, "shop": null, "sport": null, "takeaway": null, "toilets": null, "website": null, "wikidata": null, "wikipedia": null, "Numb": 1 }, "geometry": { "type": "Point", "coordinates": [ 989407.794453808222897, 203419.00138092081761 ] } },
{ "type": "Feature", "properties": { "id": "node/2549926891", "@id": "node/2549926891", "addr:city": "New York", "addr:housenumber": "112", "addr:postcode": "10009", "addr:state": "NY", "addr:street": "Avenue A", "alt_name": null, "amenity": "Bar", "branch": null, "brand": null, "brand:wikidata": null, "check_date": null, "check_date:opening_hours": null, "cocktails": null, "cuisine": null, "delivery": null, "diet:vegan": null, "diet:vegetarian": null, "drink:beer": null, "drink:coffee": null, "drink:liquor": null, "drink:wine": null, "facebook": null, "happy_hours": null, "indoor_seating": null, "instagram": null, "internet_access": null, "internet_access:fee": null, "name": "Niagara", "note": null, "official_name": null, "opening_hours": "Mo-Su 14:00-04:00", "opening_hours:signed": null, "outdoor_seating": null, "payment:mastercard": null, "payment:visa": null, "phone": "+1-212-420-9517", "reservation": null, "shop": null, "sport": null, "takeaway": null, "toilets": null, "website": "https://www.niagaranyc.com/", "wikidata": null, "wikipedia": null, "Numb": 2 }, "geometry": { "type": "Point", "coordinates": [ 988833.918364881887101, 203752.321627522760537 ] } },
{ "type": "Feature", "properties": { "id": "node/2549928453", "@id": "node/2549928453", "addr:city": null, "addr:housenumber": "131", "addr:postcode": "10009", "addr:state": null, "addr:street": "Avenue A", "alt_name": null, "amenity": "Restaurant", "branch": null, "brand": null, "brand:wikidata": null, "check_date": null, "check_date:opening_hours": null, "cocktails": null, "cuisine": "japanese", "delivery": null, "diet:vegan": null, "diet:vegetarian": null, "drink:beer": null, "drink:coffee": null, "drink:liquor": null, "drink:wine": null, "facebook": null, "happy_hours": null, "indoor_seating": null, "instagram": null, "internet_access": null, "internet_access:fee": null, "name": "Tabetomo", "note": null, "official_name": null, "opening_hours": null, "opening_hours:signed": null, "outdoor_seating": null, "payment:mastercard": null, "payment:visa": null, "phone": "6468506414", "reservation": null, "shop": null, "sport": null, "takeaway": null, "toilets": null, "website": null, "wikidata": null, "wikipedia": null, "Numb": 3 }, "geometry": { "type": "Point", "coordinates": [ 988930.002405894338153, 204099.220339267252712 ] } },
{ "type": "Feature", "properties": { "id": "node/2549928461", "@id": "node/2549928461", "addr:city": null, "addr:housenumber": "141", "addr:postcode": "10009", "addr:state": null, "addr:street": "Avenue A", "alt_name": null, "amenity": "Bar", "branch": null, "brand": null, "brand:wikidata": null, "check_date": "2024-11-09", "check_date:opening_hours": null, "cocktails": null, "cuisine": null, "delivery": null, "diet:vegan": null, "diet:vegetarian": null, "drink:beer": null, "drink:coffee": null, "drink:liquor": null, "drink:wine": null, "facebook": null, "happy_hours": null, "indoor_seating": null, "instagram": null, "internet_access": null, "internet_access:fee": null, "name": "Doc Hollidays", "note": null, "official_name": null, "opening_hours": null, "opening_hours:signed": "no", "outdoor_seating": null, "payment:mastercard": null, "payment:visa": null, "phone": null, "reservation": null, "shop": null, "sport": null, "takeaway": null, "toilets": null, "website": null, "wikidata": null, "wikipedia": null, "Numb": 4 }, "geometry": { "type": "Point", "coordinates": [ 988993.670972889987752, 204226.093113659357186 ] } },
{ "type": "Feature", "properties": { "id": "node/2549930015", "@id": "node/2549930015", "addr:city": null, "addr:housenumber": "145", "addr:postcode": "10009", "addr:state": null, "addr:street": "Avenue A", "alt_name": null, "amenity": "Ice Cream", "branch": null, "brand": null, "brand:wikidata": null, "check_date": "2024-11-09", "check_date:opening_hours": null, "cocktails": null, "cuisine": null, "delivery": null, "diet:vegan": null, "diet:vegetarian": null, "drink:beer": null, "drink:coffee": null, "drink:liquor": null, "drink:wine": null, "facebook": null, "happy_hours": null, "indoor_seating": null, "instagram": null, "internet_access": null, "internet_access:fee": null, "name": "Ralph's Famous", "note": null, "official_name": null, "opening_hours": null, "opening_hours:signed": null, "outdoor_seating": null, "payment:mastercard": null, "payment:visa": null, "phone": null, "reservation": null, "shop": null, "sport": null, "takeaway": null, "toilets": null, "website": null, "wikidata": null, "wikipedia": null, "Numb": 5 }, "geometry": { "type": "Point", "coordinates": [ 989036.202278272132389, 204296.526859538105782 ] } },
{ "type": "Feature", "properties": { "id": "node/2567528714", "@id": "node/2567528714", "addr:city": null, "addr:housenumber": "155", "addr:postcode": "10009", "addr:state": null, "addr:street": "Avenue B", "alt_name": null, "amenity": "Restaurant", "branch": null, "brand": null, "brand:wikidata": null, "check_date": null, "check_date:opening_hours": null, "cocktails": null, "cuisine": "wine;pasta", "delivery": null, "diet:vegan": "only", "diet:vegetarian": null, "drink:beer": null, "drink:coffee": null, "drink:liquor": null, "drink:wine": "served", "facebook": null, "happy_hours": null, "indoor_seating": null, "instagram": null, "internet_access": null, "internet_access:fee": null, "name": "Soda Club", "note": null, "official_name": null, "opening_hours": "Mo-Su 17:00-24:00", "opening_hours:signed": null, "outdoor_seating": "yes", "payment:mastercard": null, "payment:visa": null, "phone": "+1-833-328-4588", "reservation": null, "shop": null, "sport": null, "takeaway": null, "toilets": null, "website": "https://www.overthrowhospitality.com/venues/sodaclub", "wikidata": null, "wikipedia": null, "Numb": 6 }, "geometry": { "type": "Point", "coordinates": [ 989822.559888303861953, 204030.36941730970284 ] } },
{ "type": "Feature", "properties": { "id": "node/2963586033", "@id": "node/2963586033", "addr:city": null, "addr:housenumber": null, "addr:postcode": null, "addr:state": null, "addr:street": null, "alt_name": null, "amenity": "Candy Store", "branch": null, "brand": null, "brand:wikidata": null, "check_date": "2023-05-08", "check_date:opening_hours": null, "cocktails": null, "cuisine": null, "delivery": null, "diet:vegan": null, "diet:vegetarian": null, "drink:beer": null, "drink:coffee": null, "drink:liquor": null, "drink:wine": null, "facebook": null, "happy_hours": null, "indoor_seating": null, "instagram": null, "internet_access": null, "internet_access:fee": null, "name": "Ray's Candy Store", "note": null, "official_name": null, "opening_hours": "24/7", "opening_hours:signed": null, "outdoor_seating": null, "payment:mastercard": null, "payment:visa": null, "phone": null, "reservation": null, "shop": "convenience", "sport": null, "takeaway": null, "toilets": null, "website": null, "wikidata": "Q7297096", "wikipedia": "en:Ray's Candy Store", "Numb": 7 }, "geometry": { "type": "Point", "coordinates": [ 988810.472744156606495, 203881.327026387152728 ] } },
{ "type": "Feature", "properties": { "id": "node/3574719396", "@id": "node/3574719396", "addr:city": null, "addr:housenumber": "293", "addr:postcode": null, "addr:state": null, "addr:street": "East 10th Street", "alt_name": null, "amenity": "Cafe", "branch": null, "brand": null, "brand:wikidata": null, "check_date": null, "check_date:opening_hours": null, "cocktails": null, "cuisine": null, "delivery": null, "diet:vegan": null, "diet:vegetarian": null, "drink:beer": null, "drink:coffee": null, "drink:liquor": null, "drink:wine": null, "facebook": null, "happy_hours": null, "indoor_seating": "yes", "instagram": null, "internet_access": null, "internet_access:fee": null, "name": "Horus Café", "note": null, "official_name": null, "opening_hours": "Mo-Su 09:00-22:00", "opening_hours:signed": null, "outdoor_seating": "yes", "payment:mastercard": null, "payment:visa": null, "phone": null, "reservation": null, "shop": null, "sport": null, "takeaway": null, "toilets": null, "website": null, "wikidata": null, "wikipedia": null, "Numb": 8 }, "geometry": { "type": "Point", "coordinates": [ 989236.97489614202641, 204466.127607584377984 ] } },
{ "type": "Feature", "properties": { "id": "node/4006284842", "@id": "node/4006284842", "addr:city": null, "addr:housenumber": "109", "addr:postcode": "10009", "addr:state": null, "addr:street": "Avenue A", "alt_name": "7A Cafe", "amenity": "Restaurant", "branch": null, "brand": null, "brand:wikidata": null, "check_date": "2024-06-10", "check_date:opening_hours": null, "cocktails": "yes", "cuisine": "caribbean", "delivery": null, "diet:vegan": null, "diet:vegetarian": null, "drink:beer": "yes", "drink:coffee": "yes", "drink:liquor": "yes", "drink:wine": "yes", "facebook": null, "happy_hours": null, "indoor_seating": null, "instagram": null, "internet_access": "wlan", "internet_access:fee": "customers", "name": "Miss Lily’s", "note": null, "official_name": null, "opening_hours": "Mo-Th 17:00-22:00; Fr 17:00-02:00; Sa 12:00-03:00; Su 12:00-22:00", "opening_hours:signed": null, "outdoor_seating": "yes", "payment:mastercard": "yes", "payment:visa": "yes", "phone": "+1-212-812-1482", "reservation": null, "shop": null, "sport": null, "takeaway": null, "toilets": "yes", "website": "http://www.misslilysnyc.com/home", "wikidata": null, "wikipedia": null, "Numb": 9 }, "geometry": { "type": "Point", "coordinates": [ 988753.975591631256975, 203783.930522945243865 ] } },
{ "type": "Feature", "properties": { "id": "node/4146369289", "@id": "node/4146369289", "addr:city": "New York", "addr:housenumber": "339", "addr:postcode": "10009", "addr:state": "NY", "addr:street": "East 10th Street", "alt_name": null, "amenity": "Bar", "branch": null, "brand": null, "brand:wikidata": null, "check_date": null, "check_date:opening_hours": null, "cocktails": null, "cuisine": null, "delivery": null, "diet:vegan": null, "diet:vegetarian": null, "drink:beer": null, "drink:coffee": null, "drink:liquor": null, "drink:wine": null, "facebook": null, "happy_hours": "Tu-Sa 18:00-20:0", "indoor_seating": null, "instagram": null, "internet_access": null, "internet_access:fee": null, "name": "Blind Barber", "note": null, "official_name": null, "opening_hours": "Tu-We 18:00-02:00; Th-Sa 18:00-04:00", "opening_hours:signed": null, "outdoor_seating": null, "payment:mastercard": null, "payment:visa": null, "phone": null, "reservation": null, "shop": null, "sport": null, "takeaway": null, "toilets": null, "website": null, "wikidata": null, "wikipedia": null, "Numb": 10 }, "geometry": { "type": "Point", "coordinates": [ 989755.224374165176414, 204199.075967984914314 ] } },
{ "type": "Feature", "properties": { "id": "node/4711117992", "@id": "node/4711117992", "addr:city": null, "addr:housenumber": "111", "addr:postcode": null, "addr:state": null, "addr:street": "Avenue A", "alt_name": null, "amenity": "Restaurant", "branch": null, "brand": null, "brand:wikidata": null, "check_date": "2023-05-08", "check_date:opening_hours": null, "cocktails": null, "cuisine": "american", "delivery": null, "diet:vegan": null, "diet:vegetarian": null, "drink:beer": null, "drink:coffee": null, "drink:liquor": null, "drink:wine": null, "facebook": null, "happy_hours": null, "indoor_seating": null, "instagram": null, "internet_access": "wlan", "internet_access:fee": null, "name": "Yuca Bar & Restaurant", "note": null, "official_name": null, "opening_hours": "Mo-We 11:00-23:00, Th,Fr 11:00-24:00, Sa 10:00-02:00, Su 10:00-23:00", "opening_hours:signed": null, "outdoor_seating": null, "payment:mastercard": null, "payment:visa": null, "phone": null, "reservation": null, "shop": null, "sport": null, "takeaway": null, "toilets": null, "website": null, "wikidata": null, "wikipedia": null, "Numb": 11 }, "geometry": { "type": "Point", "coordinates": [ 988797.25625003001187, 203856.91430135720293 ] } },
{ "type": "Feature", "properties": { "id": "node/4711118291", "@id": "node/4711118291", "addr:city": null, "addr:housenumber": "132", "addr:postcode": "10019", "addr:state": null, "addr:street": "Saint Mark's Place", "alt_name": null, "amenity": "Bar", "branch": null, "brand": null, "brand:wikidata": null, "check_date": null, "check_date:opening_hours": null, "cocktails": null, "cuisine": "mexican", "delivery": "yes", "diet:vegan": null, "diet:vegetarian": null, "drink:beer": null, "drink:coffee": null, "drink:liquor": null, "drink:wine": null, "facebook": "https://www.facebook.com/EmpellonRestaurant", "happy_hours": null, "indoor_seating": null, "instagram": "https://www.instagram.com/empellonalpastor", "internet_access": "wlan", "internet_access:fee": null, "name": "Empellón Al pastor", "note": null, "official_name": null, "opening_hours": "Mo-Th 12:00-00:00; Fr 12:00-02:00; Sa 13:00-02:00; Su 13:00-00:00", "opening_hours:signed": null, "outdoor_seating": null, "payment:mastercard": null, "payment:visa": null, "phone": null, "reservation": null, "shop": null, "sport": null, "takeaway": null, "toilets": null, "website": "https://www.empellon.com/restaurants/al-pastor", "wikidata": null, "wikipedia": null, "Numb": 12 }, "geometry": { "type": "Point", "coordinates": [ 988884.756906983326189, 204014.613757570798043 ] } },
{ "type": "Feature", "properties": { "id": "node/5057321124", "@id": "node/5057321124", "addr:city": null, "addr:housenumber": "153", "addr:postcode": null, "addr:state": null, "addr:street": "Avenue A", "alt_name": null, "amenity": "Deli", "branch": null, "brand": null, "brand:wikidata": null, "check_date": "2024-11-09", "check_date:opening_hours": null, "cocktails": null, "cuisine": null, "delivery": null, "diet:vegan": null, "diet:vegetarian": null, "drink:beer": null, "drink:coffee": null, "drink:liquor": null, "drink:wine": null, "facebook": null, "happy_hours": null, "indoor_seating": null, "instagram": null, "internet_access": null, "internet_access:fee": null, "name": "The East Village Mini Market", "note": null, "official_name": null, "opening_hours": null, "opening_hours:signed": "no", "outdoor_seating": null, "payment:mastercard": null, "payment:visa": null, "phone": null, "reservation": null, "shop": "convenience", "sport": null, "takeaway": null, "toilets": null, "website": null, "wikidata": null, "wikipedia": null, "Numb": 13 }, "geometry": { "type": "Point", "coordinates": [ 989082.470535549684428, 204389.622867505793693 ] } },
{ "type": "Feature", "properties": { "id": "node/5383045522", "@id": "node/5383045522", "addr:city": "New York", "addr:housenumber": "178", "addr:postcode": "10009", "addr:state": "NY", "addr:street": "East 7th Street", "alt_name": "C&B Café", "amenity": "Cafe", "branch": null, "brand": null, "brand:wikidata": null, "check_date": null, "check_date:opening_hours": null, "cocktails": null, "cuisine": null, "delivery": null, "diet:vegan": null, "diet:vegetarian": null, "drink:beer": null, "drink:coffee": null, "drink:liquor": null, "drink:wine": null, "facebook": "https://www.facebook.com/candbnyc/", "happy_hours": null, "indoor_seating": null, "instagram": null, "internet_access": "no", "internet_access:fee": null, "name": "C&B", "note": null, "official_name": null, "opening_hours": "Mo-Su 09:00-16:00", "opening_hours:signed": null, "outdoor_seating": "yes", "payment:mastercard": null, "payment:visa": null, "phone": null, "reservation": null, "shop": null, "sport": null, "takeaway": null, "toilets": null, "website": "http://www.candbnyc.com/", "wikidata": null, "wikipedia": null, "Numb": 14 }, "geometry": { "type": "Point", "coordinates": [ 989344.44948610663414, 203465.986682316171937 ] } },
{ "type": "Feature", "properties": { "id": "node/5603550886", "@id": "node/5603550886", "addr:city": "New York", "addr:housenumber": "110", "addr:postcode": "10009", "addr:state": "NY", "addr:street": "Avenue A", "alt_name": null, "amenity": "Bar", "branch": null, "brand": null, "brand:wikidata": null, "check_date": null, "check_date:opening_hours": null, "cocktails": null, "cuisine": null, "delivery": null, "diet:vegan": null, "diet:vegetarian": null, "drink:beer": null, "drink:coffee": null, "drink:liquor": null, "drink:wine": null, "facebook": null, "happy_hours": null, "indoor_seating": null, "instagram": null, "internet_access": null, "internet_access:fee": null, "name": "Tompkins Square Bar", "note": null, "official_name": null, "opening_hours": "Mo-Th 15:00-23:00; Fr-Su 14:00-23:00", "opening_hours:signed": null, "outdoor_seating": null, "payment:mastercard": null, "payment:visa": null, "phone": null, "reservation": null, "shop": null, "sport": null, "takeaway": null, "toilets": null, "website": null, "wikidata": null, "wikipedia": null, "Numb": 15 }, "geometry": { "type": "Point", "coordinates": [ 988828.182848278665915, 203741.937082702381304 ] } },
{ "type": "Feature", "properties": { "id": "node/5603563258", "@id": "node/5603563258", "addr:city": "New York", "addr:housenumber": "125", "addr:postcode": "10009", "addr:state": "NY", "addr:street": "Saint Mark's Place", "alt_name": null, "amenity": "Cafe", "branch": "Avenue A & Saint Marks", "brand": "Starbucks", "brand:wikidata": "Q37158", "check_date": "2024-11-09", "check_date:opening_hours": null, "cocktails": null, "cuisine": "coffee_shop", "delivery": null, "diet:vegan": null, "diet:vegetarian": null, "drink:beer": null, "drink:coffee": null, "drink:liquor": null, "drink:wine": null, "facebook": null, "happy_hours": null, "indoor_seating": null, "instagram": null, "internet_access": "yes", "internet_access:fee": "no", "name": "Starbucks", "note": null, "official_name": "Starbucks Coffee", "opening_hours": "Mo-Fr 06:00-19:00; Sa-Su 07:00-19:00", "opening_hours:signed": null, "outdoor_seating": null, "payment:mastercard": null, "payment:visa": null, "phone": "+1 917-648-3955", "reservation": null, "shop": null, "sport": null, "takeaway": "yes", "toilets": null, "website": "https://www.starbucks.com/store-locator/store/1018160/avenue-a-st-marks-125-st-marks-place-new-york-ny-100095158-us", "wikidata": null, "wikipedia": null, "Numb": 16 }, "geometry": { "type": "Point", "coordinates": [ 988913.68163613055367, 204075.899940819916083 ] } },
{ "type": "Feature", "properties": { "id": "node/5889547501", "@id": "node/5889547501", "addr:city": null, "addr:housenumber": "341", "addr:postcode": null, "addr:state": null, "addr:street": "East 10th Street", "alt_name": null, "amenity": "Cafe", "branch": null, "brand": null, "brand:wikidata": null, "check_date": null, "check_date:opening_hours": null, "cocktails": null, "cuisine": null, "delivery": null, "diet:vegan": null, "diet:vegetarian": null, "drink:beer": null, "drink:coffee": null, "drink:liquor": null, "drink:wine": null, "facebook": null, "happy_hours": null, "indoor_seating": null, "instagram": null, "internet_access": null, "internet_access:fee": null, "name": "Ninth Street Espresso", "note": null, "official_name": null, "opening_hours": "PH,Mo-Su 07:00-19:00", "opening_hours:signed": null, "outdoor_seating": null, "payment:mastercard": null, "payment:visa": null, "phone": null, "reservation": null, "shop": null, "sport": null, "takeaway": null, "toilets": null, "website": null, "wikidata": null, "wikipedia": null, "Numb": 17 }, "geometry": { "type": "Point", "coordinates": [ 989762.051285227062181, 204161.624225485371426 ] } },
{ "type": "Feature", "properties": { "id": "node/6278128485", "@id": "node/6278128485", "addr:city": null, "addr:housenumber": "119", "addr:postcode": null, "addr:state": null, "addr:street": "Avenue A", "alt_name": null, "amenity": "Restaurant", "branch": null, "brand": null, "brand:wikidata": null, "check_date": null, "check_date:opening_hours": null, "cocktails": null, "cuisine": null, "delivery": null, "diet:vegan": "yes", "diet:vegetarian": "only", "drink:beer": null, "drink:coffee": null, "drink:liquor": null, "drink:wine": null, "facebook": null, "happy_hours": null, "indoor_seating": null, "instagram": null, "internet_access": null, "internet_access:fee": null, "name": "Superiority Burger", "note": null, "official_name": null, "opening_hours": "Mo-Fr 12:00-15:00, Mo-Fr 17:00-22:45, Sa-Su 11:00-14:30, Sa-Su 17:00-1:00", "opening_hours:signed": null, "outdoor_seating": null, "payment:mastercard": null, "payment:visa": null, "phone": "+1 646-422-7707", "reservation": null, "shop": null, "sport": null, "takeaway": "yes", "toilets": null, "website": "https://www.superiorityburger.com/", "wikidata": null, "wikipedia": null, "Numb": 18 }, "geometry": { "type": "Point", "coordinates": [ 988842.474679170758463, 203941.265677880495787 ] } },
{ "type": "Feature", "properties": { "id": "node/9373941165", "@id": "node/9373941165", "addr:city": "New York", "addr:housenumber": "147", "addr:postcode": "10009", "addr:state": "NY", "addr:street": "Avenue A", "alt_name": null, "amenity": "Restaurant", "branch": null, "brand": null, "brand:wikidata": null, "check_date": "2024-11-09", "check_date:opening_hours": null, "cocktails": null, "cuisine": "pizza", "delivery": null, "diet:vegan": null, "diet:vegetarian": null, "drink:beer": null, "drink:coffee": null, "drink:liquor": null, "drink:wine": null, "facebook": null, "happy_hours": null, "indoor_seating": null, "instagram": null, "internet_access": null, "internet_access:fee": null, "name": "Village Square Pizza", "note": null, "official_name": null, "opening_hours": null, "opening_hours:signed": null, "outdoor_seating": null, "payment:mastercard": null, "payment:visa": null, "phone": null, "reservation": null, "shop": null, "sport": null, "takeaway": null, "toilets": null, "website": null, "wikidata": null, "wikipedia": null, "Numb": 19 }, "geometry": { "type": "Point", "coordinates": [ 989051.55138180940412, 204326.441553287673742 ] } },
{ "type": "Feature", "properties": { "id": "node/11067172705", "@id": "node/11067172705", "addr:city": "New York", "addr:housenumber": "132 ½", "addr:postcode": "10009", "addr:state": "NY", "addr:street": "East 7th Street", "alt_name": null, "amenity": "Bar", "branch": null, "brand": null, "brand:wikidata": null, "check_date": null, "check_date:opening_hours": null, "cocktails": null, "cuisine": null, "delivery": null, "diet:vegan": null, "diet:vegetarian": null, "drink:beer": null, "drink:coffee": null, "drink:liquor": null, "drink:wine": null, "facebook": null, "happy_hours": null, "indoor_seating": null, "instagram": null, "internet_access": null, "internet_access:fee": null, "name": "Lovers of Today", "note": "entrance to this place is between the two buildings", "official_name": null, "opening_hours": "17:00-04:00", "opening_hours:signed": null, "outdoor_seating": null, "payment:mastercard": null, "payment:visa": null, "phone": "+1-212-614-9798", "reservation": "yes", "shop": null, "sport": null, "takeaway": null, "toilets": null, "website": "http://www.loversoftodaynyc.com/", "wikidata": null, "wikipedia": null, "Numb": 20 }, "geometry": { "type": "Point", "coordinates": [ 988895.291714031482115, 203715.426595405966509 ] } },
{ "type": "Feature", "properties": { "id": "node/11189423585", "@id": "node/11189423585", "addr:city": null, "addr:housenumber": null, "addr:postcode": null, "addr:state": null, "addr:street": null, "alt_name": null, "amenity": "Bar", "branch": null, "brand": null, "brand:wikidata": null, "check_date": null, "check_date:opening_hours": null, "cocktails": null, "cuisine": null, "delivery": null, "diet:vegan": null, "diet:vegetarian": null, "drink:beer": null, "drink:coffee": null, "drink:liquor": null, "drink:wine": null, "facebook": null, "happy_hours": null, "indoor_seating": null, "instagram": null, "internet_access": null, "internet_access:fee": null, "name": "Lucy's Bar", "note": null, "official_name": null, "opening_hours": null, "opening_hours:signed": null, "outdoor_seating": null, "payment:mastercard": null, "payment:visa": null, "phone": null, "reservation": null, "shop": null, "sport": "billiards", "takeaway": null, "toilets": null, "website": null, "wikidata": null, "wikipedia": null, "Numb": 21 }, "geometry": { "type": "Point", "coordinates": [ 988955.46141839819029, 204165.060047353239497 ] } },
{ "type": "Feature", "properties": { "id": "node/12327498679", "@id": "node/12327498679", "addr:city": null, "addr:housenumber": "117", "addr:postcode": null, "addr:state": null, "addr:street": "Avenue A", "alt_name": null, "amenity": "Bar", "branch": null, "brand": null, "brand:wikidata": null, "check_date": "2024-11-09", "check_date:opening_hours": null, "cocktails": null, "cuisine": null, "delivery": null, "diet:vegan": null, "diet:vegetarian": null, "drink:beer": null, "drink:coffee": null, "drink:liquor": null, "drink:wine": null, "facebook": null, "happy_hours": null, "indoor_seating": null, "instagram": null, "internet_access": null, "internet_access:fee": null, "name": "St. Dymphna’s", "note": null, "official_name": null, "opening_hours": null, "opening_hours:signed": null, "outdoor_seating": null, "payment:mastercard": null, "payment:visa": null, "phone": null, "reservation": null, "shop": null, "sport": null, "takeaway": null, "toilets": null, "website": null, "wikidata": null, "wikipedia": null, "Numb": 22 }, "geometry": { "type": "Point", "coordinates": [ 988830.810085171018727, 203918.565589282778092 ] } },
{ "type": "Feature", "properties": { "id": "node/12327505161", "@id": "node/12327505161", "addr:city": "New York", "addr:housenumber": "131", "addr:postcode": null, "addr:state": null, "addr:street": "Avenue A", "alt_name": null, "amenity": "Fast Food", "branch": null, "brand": null, "brand:wikidata": null, "check_date": "2024-11-09", "check_date:opening_hours": null, "cocktails": null, "cuisine": "sandwich", "delivery": null, "diet:vegan": null, "diet:vegetarian": null, "drink:beer": null, "drink:coffee": null, "drink:liquor": null, "drink:wine": null, "facebook": null, "happy_hours": null, "indoor_seating": null, "instagram": null, "internet_access": null, "internet_access:fee": null, "name": "No Fork", "note": null, "official_name": null, "opening_hours": null, "opening_hours:signed": null, "outdoor_seating": null, "payment:mastercard": null, "payment:visa": null, "phone": null, "reservation": null, "shop": null, "sport": null, "takeaway": null, "toilets": null, "website": null, "wikidata": null, "wikipedia": null, "Numb": 23 }, "geometry": { "type": "Point", "coordinates": [ 988937.510437211021781, 204115.981059928541072 ] } },
{ "type": "Feature", "properties": { "id": "node/12327528096", "@id": "node/12327528096", "addr:city": null, "addr:housenumber": "149", "addr:postcode": null, "addr:state": null, "addr:street": "Avenue A", "alt_name": null, "amenity": "Cafe", "branch": null, "brand": "Blank Street Coffee", "brand:wikidata": "Q114792509", "check_date": "2024-11-09", "check_date:opening_hours": null, "cocktails": null, "cuisine": "coffee_shop", "delivery": null, "diet:vegan": null, "diet:vegetarian": null, "drink:beer": null, "drink:coffee": null, "drink:liquor": null, "drink:wine": null, "facebook": null, "happy_hours": null, "indoor_seating": null, "instagram": null, "internet_access": null, "internet_access:fee": null, "name": "Blank Street Coffee", "note": null, "official_name": null, "opening_hours": null, "opening_hours:signed": null, "outdoor_seating": null, "payment:mastercard": null, "payment:visa": null, "phone": null, "reservation": null, "shop": null, "sport": null, "takeaway": "yes", "toilets": null, "website": null, "wikidata": null, "wikipedia": null, "Numb": 24 }, "geometry": { "type": "Point", "coordinates": [ 989065.100365680642426, 204348.850662605138496 ] } },
{ "type": "Feature", "properties": { "id": "node/12327529700", "@id": "node/12327529700", "addr:city": null, "addr:housenumber": "137", "addr:postcode": null, "addr:state": null, "addr:street": "Avenue A", "alt_name": null, "amenity": "Restaurant", "branch": null, "brand": null, "brand:wikidata": null, "check_date": "2024-11-09", "check_date:opening_hours": null, "cocktails": null, "cuisine": "sushi", "delivery": null, "diet:vegan": null, "diet:vegetarian": null, "drink:beer": null, "drink:coffee": null, "drink:liquor": null, "drink:wine": null, "facebook": null, "happy_hours": null, "indoor_seating": null, "instagram": null, "internet_access": null, "internet_access:fee": null, "name": "Rosella", "note": null, "official_name": null, "opening_hours": null, "opening_hours:signed": null, "outdoor_seating": null, "payment:mastercard": null, "payment:visa": null, "phone": null, "reservation": null, "shop": null, "sport": null, "takeaway": null, "toilets": null, "website": null, "wikidata": null, "wikipedia": null, "Numb": 25 }, "geometry": { "type": "Point", "coordinates": [ 988968.541101704118773, 204178.761481089313747 ] } },
{ "type": "Feature", "properties": { "id": "node/12327530510", "@id": "node/12327530510", "addr:city": null, "addr:housenumber": "131", "addr:postcode": null, "addr:state": null, "addr:street": "Avenue A", "alt_name": null, "amenity": "Fast Food", "branch": null, "brand": null, "brand:wikidata": null, "check_date": "2024-11-09", "check_date:opening_hours": null, "cocktails": null, "cuisine": "pizza", "delivery": null, "diet:vegan": null, "diet:vegetarian": null, "drink:beer": null, "drink:coffee": null, "drink:liquor": null, "drink:wine": null, "facebook": null, "happy_hours": null, "indoor_seating": null, "instagram": null, "internet_access": null, "internet_access:fee": null, "name": "$1.50 Fresh Pizza & Hot Dog", "note": null, "official_name": null, "opening_hours": null, "opening_hours:signed": null, "outdoor_seating": null, "payment:mastercard": null, "payment:visa": null, "phone": "9174091640", "reservation": null, "shop": null, "sport": null, "takeaway": null, "toilets": null, "website": null, "wikidata": null, "wikipedia": null, "Numb": 26 }, "geometry": { "type": "Point", "coordinates": [ 988949.175249279593118, 204136.568077354691923 ] } },
{ "type": "Feature", "properties": { "id": "node/12327555834", "@id": "node/12327555834", "addr:city": null, "addr:housenumber": "147", "addr:postcode": null, "addr:state": null, "addr:street": "Avenue A", "alt_name": null, "amenity": "Fast Food", "branch": null, "brand": null, "brand:wikidata": null, "check_date": "2024-11-09", "check_date:opening_hours": null, "cocktails": null, "cuisine": "korean", "delivery": null, "diet:vegan": null, "diet:vegetarian": null, "drink:beer": null, "drink:coffee": null, "drink:liquor": null, "drink:wine": null, "facebook": null, "happy_hours": null, "indoor_seating": null, "instagram": null, "internet_access": null, "internet_access:fee": null, "name": "Korean Street Foods", "note": null, "official_name": null, "opening_hours": null, "opening_hours:signed": null, "outdoor_seating": null, "payment:mastercard": null, "payment:visa": null, "phone": null, "reservation": null, "shop": null, "sport": null, "takeaway": null, "toilets": null, "website": null, "wikidata": null, "wikipedia": null, "Numb": 27 }, "geometry": { "type": "Point", "coordinates": [ 989046.647849367465824, 204314.78195950150257 ] } }
]
}
